{"fetched_at":"2026-03-29T02:12:04Z","count":15717,"tles":[{"name":"2025-310A","line1":"1 67234U 25310A   26085.98565288  .00000022  00000+0  10614-4 0  9994","line2":"2 67234  97.9680  94.4600 0002534  20.6988 339.4324 14.75723706 13502","category":"Other"}]}