{
  "norad_id": 67234,
  "name": "2025-310A",
  "history": [
    {
      "epoch": "2026-03-26T23:39:20.408832",
      "apogee_km": 644.6340210209046,
      "perigee_km": 641.075782325137,
      "latitude_deg": -82.35501084267383,
      "longitude_deg": 86.0226764800027,
      "semi_major_axis_km": 7020.99190167302,
      "eccentricity": 0.0002534,
      "inclination_deg": 97.968,
      "raan_deg": 94.46,
      "arg_perigee_deg": 20.6988,
      "mean_anomaly_deg": 339.4324,
      "mean_motion_rev_day": 14.75723706
    }
  ]
}